O3B MPOWER F9           
1 64866U 25153A   26115.80457616 -.00000027  00000+0  00000+0 0  9996
2 64866   0.0539  15.2785 0005552  44.5914 300.1834  5.00116064 16943
O3B MPOWER F10          
1 64867U 25153B   26115.37069255 -.00000027  00000+0  00000+0 0  9997
2 64867   0.0538  10.3189 0002819 261.8403  87.8067  5.00114865 19393
